start=new Date('2021-12-12T00:00:00.000Z').valueOf();
sats=[{"DECAY_DATE":null,"APOAPSIS":"300.084","SEMIMAJOR_AXIS":"6677.575","MEAN_ANOMALY":"258.3138","ELEMENT_SET_NO":"999","MEAN_MOTION":"15.91016194","OBJECT_ID":"2021-024AQ","CENTER_NAME":"EARTH","RA_OF_ASC_NODE":"337.6110","CLASSIFICATION_TYPE":"U","SITE":"AFETR","LAUNCH_DATE":"2021-03-24","COUNTRY_CODE":"US","OBJECT_TYPE":"PAYLOAD","NORAD_CAT_ID":"48015","GP_ID":"191521670","EPOCH":"2021-12-11T22:00:00.999936","FILE":"3237650","EPHEMERIS_TYPE":"0","TLE_LINE2":"2 48015  53.0563 337.6110 0000964  58.2824 258.3138 15.91016194  3719","ECCENTRICITY":"0.00009640","TIME_SYSTEM":"UTC","MEAN_ELEMENT_THEORY":"SGP4","BSTAR":"-0.00031160000000","REV_AT_EPOCH":"371","MEAN_MOTION_DOT":"-0.00104244","ARG_OF_PERICENTER":"58.2824","RCS_SIZE":"LARGE","INCLINATION":"53.0563","OBJECT_NAME":"STARLINK-2281","PERIAPSIS":"298.796","TLE_LINE1":"1 48015U 21024AQ  21345.91667824 -.00104244  14485-4 -31160-3 0  9992","PERIOD":"90.508","MEAN_MOTION_DDOT":"0.0000144850000","REF_FRAME":"TEME"},{"REV_AT_EPOCH":"359","MEAN_MOTION_DOT":"0.00037993","TIME_SYSTEM":"UTC","BSTAR":"0.00255840000000","MEAN_ELEMENT_THEORY":"SGP4","TLE_LINE2":"2 48016  53.0554   4.3172 0001494  63.3749  79.9688 15.06362308  3598","ECCENTRICITY":"0.00014940","EPOCH":"2021-12-11T22:00:00.999936","EPHEMERIS_TYPE":"0","FILE":"3237650","GP_ID":"191522914","REF_FRAME":"TEME","PERIOD":"95.595","MEAN_MOTION_DDOT":"0.0000000000000","TLE_LINE1":"1 48016U 21024AR  21345.91667824  .00037993  00000-0  25584-2 0  9993","PERIAPSIS":"546.294","OBJECT_NAME":"STARLINK-2284","INCLINATION":"53.0554","ARG_OF_PERICENTER":"63.3749","RCS_SIZE":"LARGE","OBJECT_ID":"2021-024AR","CENTER_NAME":"EARTH","ELEMENT_SET_NO":"999","MEAN_MOTION":"15.06362308","MEAN_ANOMALY":"79.9688","SEMIMAJOR_AXIS":"6925.464","DECAY_DATE":null,"APOAPSIS":"548.364","NORAD_CAT_ID":"48016","COUNTRY_CODE":"US","OBJECT_TYPE":"PAYLOAD","SITE":"AFETR","LAUNCH_DATE":"2021-03-24","RA_OF_ASC_NODE":"4.3172","CLASSIFICATION_TYPE":"U"},{"MEAN_MOTION":"15.26268199","ELEMENT_SET_NO":"999","CENTER_NAME":"EARTH","OBJECT_ID":"2021-024AS","APOAPSIS":"487.871","DECAY_DATE":null,"SEMIMAJOR_AXIS":"6865.117","MEAN_ANOMALY":"289.3892","OBJECT_TYPE":"PAYLOAD","COUNTRY_CODE":"US","NORAD_CAT_ID":"48017","CLASSIFICATION_TYPE":"U","RA_OF_ASC_NODE":"71.8830","LAUNCH_DATE":"2021-03-24","SITE":"AFETR","ECCENTRICITY":"0.00012950","TLE_LINE2":"2 48017  53.0479  71.8830 0001295  70.7245 289.3892 15.26268199 41318","MEAN_ELEMENT_THEORY":"SGP4","BSTAR":"0.00045077000000","TIME_SYSTEM":"UTC","MEAN_MOTION_DOT":"0.00011513","REV_AT_EPOCH":"4131","GP_ID":"191522672","EPHEMERIS_TYPE":"0","FILE":"3237650","EPOCH":"2021-12-11T22:29:34.360800","TLE_LINE1":"1 48017U 21024AS  21345.93720325  .00011513  00000-0  45077-3 0  9992","MEAN_MOTION_DDOT":"0.0000000000000","PERIOD":"94.348","REF_FRAME":"TEME","RCS_SIZE":"LARGE","ARG_OF_PERICENTER":"70.7245","INCLINATION":"53.0479","OBJECT_NAME":"STARLINK-2239","PERIAPSIS":"486.093"},{"SITE":"AFETR","LAUNCH_DATE":"2021-03-24","RA_OF_ASC_NODE":"75.3804","CLASSIFICATION_TYPE":"U","NORAD_CAT_ID":"48018","COUNTRY_CODE":"US","OBJECT_TYPE":"PAYLOAD","MEAN_ANOMALY":"285.1307","SEMIMAJOR_AXIS":"6925.369","DECAY_DATE":null,"APOAPSIS":"548.121","CENTER_NAME":"EARTH","OBJECT_ID":"2021-024AT","ELEMENT_SET_NO":"999","MEAN_MOTION":"15.06393476","PERIAPSIS":"546.346","OBJECT_NAME":"STARLINK-2282","INCLINATION":"53.0554","ARG_OF_PERICENTER":"74.9823","RCS_SIZE":"LARGE","REF_FRAME":"TEME","PERIOD":"95.593","MEAN_MOTION_DDOT":"0.0000000000000","TLE_LINE1":"1 48018U 21024AT  21345.68110588 -.00000753  00000-0 -31640-4 0  9997","EPOCH":"2021-12-11T16:20:47.548032","FILE":"3237650","EPHEMERIS_TYPE":"0","GP_ID":"191521913","REV_AT_EPOCH":"4130","MEAN_MOTION_DOT":"-0.00000753","TIME_SYSTEM":"UTC","BSTAR":"-0.00003164000000","MEAN_ELEMENT_THEORY":"SGP4","TLE_LINE2":"2 48018  53.0554  75.3804 0001282  74.9823 285.1307 15.06393476 41306","ECCENTRICITY":"0.00012820"},{"CENTER_NAME":"EARTH","OBJECT_ID":"2021-024AU","MEAN_MOTION":"15.06399556","ELEMENT_SET_NO":"999","MEAN_ANOMALY":"275.2207","SEMIMAJOR_AXIS":"6925.350","APOAPSIS":"548.040","DECAY_DATE":null,"NORAD_CAT_ID":"48019","OBJECT_TYPE":"PAYLOAD","COUNTRY_CODE":"US","LAUNCH_DATE":"2021-03-24","SITE":"AFETR","CLASSIFICATION_TYPE":"U","RA_OF_ASC_NODE":"64.3443","MEAN_MOTION_DOT":"-0.00000509","REV_AT_EPOCH":"4141","BSTAR":"-0.00001525600000","MEAN_ELEMENT_THEORY":"SGP4","TIME_SYSTEM":"UTC","ECCENTRICITY":"0.00011910","TLE_LINE2":"2 48019  53.0562  64.3443 0001191  84.8918 275.2207 15.06399556 41413","FILE":"3237650","EPHEMERIS_TYPE":"0","EPOCH":"2021-12-11T21:57:51.782688","GP_ID":"191522163","REF_FRAME":"TEME","MEAN_MOTION_DDOT":"0.0000000000000","PERIOD":"95.592","TLE_LINE1":"1 48019U 21024AU  21345.91518267 -.00000509  00000-0 -15256-4 0  9994","PERIAPSIS":"546.390","OBJECT_NAME":"STARLINK-2285","INCLINATION":"53.0562","RCS_SIZE":"LARGE","ARG_OF_PERICENTER":"84.8918"},{"MEAN_MOTION_DDOT":"0.0000000000000","PERIOD":"95.594","REF_FRAME":"TEME","TLE_LINE1":"1 48020U 21024AV  21345.91667824  .00020387  00000-0  13846-2 0  9995","OBJECT_NAME":"STARLINK-2294","PERIAPSIS":"546.199","RCS_SIZE":"LARGE","ARG_OF_PERICENTER":"63.1824","INCLINATION":"53.0558","REV_AT_EPOCH":"358","MEAN_MOTION_DOT":"0.00020387","ECCENTRICITY":"0.00015820","TLE_LINE2":"2 48020  53.0558  19.3164 0001582  63.1824 277.6954 15.06373652  3580","MEAN_ELEMENT_THEORY":"SGP4","BSTAR":"0.00138460000000","TIME_SYSTEM":"UTC","FILE":"3237650","EPHEMERIS_TYPE":"0","EPOCH":"2021-12-11T22:00:00.999936","GP_ID":"191522422","NORAD_CAT_ID":"48020","OBJECT_TYPE":"PAYLOAD","COUNTRY_CODE":"US","LAUNCH_DATE":"2021-03-24","SITE":"AFETR","CLASSIFICATION_TYPE":"U","RA_OF_ASC_NODE":"19.3164","ELEMENT_SET_NO":"999","MEAN_MOTION":"15.06373652","CENTER_NAME":"EARTH","OBJECT_ID":"2021-024AV","MEAN_ANOMALY":"277.6954","APOAPSIS":"548.390","DECAY_DATE":null,"SEMIMAJOR_AXIS":"6925.429"},{"MEAN_ANOMALY":"301.6844","SEMIMAJOR_AXIS":"6925.380","DECAY_DATE":null,"APOAPSIS":"548.354","OBJECT_ID":"2021-024AW","CENTER_NAME":"EARTH","ELEMENT_SET_NO":"999","MEAN_MOTION":"15.06389663","SITE":"AFETR","LAUNCH_DATE":"2021-03-24","RA_OF_ASC_NODE":"24.6749","CLASSIFICATION_TYPE":"U","NORAD_CAT_ID":"48021","COUNTRY_CODE":"US","OBJECT_TYPE":"PAYLOAD","EPOCH":"2021-12-11T20:06:25.325568","FILE":"3237650","EPHEMERIS_TYPE":"0","GP_ID":"191523165","MEAN_MOTION_DOT":"-0.00000462","REV_AT_EPOCH":"4197","TIME_SYSTEM":"UTC","MEAN_ELEMENT_THEORY":"SGP4","BSTAR":"-0.00001210300000","TLE_LINE2":"2 48021  53.0588  24.6749 0001601  58.4301 301.6844 15.06389663 41971","ECCENTRICITY":"0.00016010","PERIAPSIS":"546.136","OBJECT_NAME":"STARLINK-2301","INCLINATION":"53.0588","ARG_OF_PERICENTER":"58.4301","RCS_SIZE":"LARGE","REF_FRAME":"TEME","PERIOD":"95.593","MEAN_MOTION_DDOT":"0.0000000000000","TLE_LINE1":"1 48021U 21024AW  21345.83779312 -.00000462  00000-0 -12103-4 0  9994"},{"SITE":"AFETR","LAUNCH_DATE":"2021-03-24","RA_OF_ASC_NODE":"85.2799","CLASSIFICATION_TYPE":"U","NORAD_CAT_ID":"48022","COUNTRY_CODE":"US","OBJECT_TYPE":"PAYLOAD","MEAN_ANOMALY":"276.6890","DECAY_DATE":null,"APOAPSIS":"547.881","SEMIMAJOR_AXIS":"6925.338","MEAN_MOTION":"15.06403570","ELEMENT_SET_NO":"999","CENTER_NAME":"EARTH","OBJECT_ID":"2021-024AX","OBJECT_NAME":"STARLINK-2298","PERIAPSIS":"546.524","ARG_OF_PERICENTER":"83.4210","RCS_SIZE":"LARGE","INCLINATION":"53.0552","PERIOD":"95.592","MEAN_MOTION_DDOT":"0.0000000000000","REF_FRAME":"TEME","TLE_LINE1":"1 48022U 21024AX  21345.70597964  .00001243  00000-0  10230-3 0  9996","EPOCH":"2021-12-11T16:56:36.640896","FILE":"3237650","EPHEMERIS_TYPE":"0","GP_ID":"191521421","REV_AT_EPOCH":"4116","MEAN_MOTION_DOT":"0.00001243","TLE_LINE2":"2 48022  53.0552  85.2799 0000980  83.4210 276.6890 15.06403570 41164","ECCENTRICITY":"0.00009800","TIME_SYSTEM":"UTC","MEAN_ELEMENT_THEORY":"SGP4","BSTAR":"0.00010230000000"},{"REV_AT_EPOCH":"4115","MEAN_MOTION_DOT":"0.00000361","TLE_LINE2":"2 48023  53.0566  85.4957 0001248  84.6548 275.4584 15.06397101 41151","ECCENTRICITY":"0.00012480","TIME_SYSTEM":"UTC","BSTAR":"0.00004310500000","MEAN_ELEMENT_THEORY":"SGP4","EPOCH":"2021-12-11T15:43:39.566784","FILE":"3237650","EPHEMERIS_TYPE":"0","GP_ID":"191521671","PERIOD":"95.592","MEAN_MOTION_DDOT":"0.0000000000000","REF_FRAME":"TEME","TLE_LINE1":"1 48023U 21024AY  21345.65531906  .00000361  00000-0  43105-4 0  9993","OBJECT_NAME":"STARLINK-2292","PERIAPSIS":"546.358","ARG_OF_PERICENTER":"84.6548","RCS_SIZE":"LARGE","INCLINATION":"53.0566","MEAN_MOTION":"15.06397101","ELEMENT_SET_NO":"999","OBJECT_ID":"2021-024AY","CENTER_NAME":"EARTH","MEAN_ANOMALY":"275.4584","DECAY_DATE":null,"APOAPSIS":"548.087","SEMIMAJOR_AXIS":"6925.357","NORAD_CAT_ID":"48023","COUNTRY_CODE":"US","OBJECT_TYPE":"PAYLOAD","SITE":"AFETR","LAUNCH_DATE":"2021-03-24","RA_OF_ASC_NODE":"85.4957","CLASSIFICATION_TYPE":"U"},{"ELEMENT_SET_NO":"999","MEAN_MOTION":"15.90915983","CENTER_NAME":"EARTH","OBJECT_ID":"2021-024AZ","APOAPSIS":"300.717","DECAY_DATE":null,"SEMIMAJOR_AXIS":"6677.855","MEAN_ANOMALY":"273.4985","OBJECT_TYPE":"PAYLOAD","COUNTRY_CODE":"US","NORAD_CAT_ID":"48024","CLASSIFICATION_TYPE":"U","RA_OF_ASC_NODE":"337.5614","LAUNCH_DATE":"2021-03-24","SITE":"AFETR","ECCENTRICITY":"0.00014930","TLE_LINE2":"2 48024  53.0417 337.5614 0001493  43.6078 273.4985 15.90915983  3713","MEAN_ELEMENT_THEORY":"SGP4","BSTAR":"-0.00000850120000","TIME_SYSTEM":"UTC","MEAN_MOTION_DOT":"-0.00006233","REV_AT_EPOCH":"371","GP_ID":"191522915","FILE":"3237650","EPHEMERIS_TYPE":"0","EPOCH":"2021-12-11T22:00:00.999936","TLE_LINE1":"1 48024U 21024AZ  21345.91667824 -.00006233  11061-4 -85012-5 0  9995","MEAN_MOTION_DDOT":"0.0000110610000","PERIOD":"90.514","REF_FRAME":"TEME","RCS_SIZE":"LARGE","ARG_OF_PERICENTER":"43.6078","INCLINATION":"53.0417","OBJECT_NAME":"STARLINK-2302","PERIAPSIS":"298.723"}];
